[{"OBJECT_NAME":"STARLINK-4321","OBJECT_ID":"2022-077AR","EPOCH":"2026-03-09T10:53:42.751392","MEAN_MOTION":15.01260631,"ECCENTRICITY":0.00011762,"INCLINATION":97.6032,"RA_OF_ASC_NODE":249.989,"ARG_OF_PERICENTER":87.6483,"MEAN_ANOMALY":272.4876,"EPHEMERIS_TYPE":0,"CLASSIFICATION_TYPE":"U","NORAD_CAT_ID":53082,"ELEMENT_SET_NO":999,"REV_AT_EPOCH":20088,"BSTAR":5.0339452e-5,"MEAN_MOTION_DOT":5.88e-6,"MEAN_MOTION_DDOT":0},{"OBJECT_NAME":"COSMOS 397 DEB","OBJECT_ID":"1971-015F","EPOCH":"2026-03-09T14:07:56.812800","MEAN_MOTION":14.44057548,"ECCENTRICITY":0.0359355,"INCLINATION":65.7322,"RA_OF_ASC_NODE":253.6291,"ARG_OF_PERICENTER":256.9911,"MEAN_ANOMALY":99.0843,"EPHEMERIS_TYPE":0,"CLASSIFICATION_TYPE":"U","NORAD_CAT_ID":5012,"ELEMENT_SET_NO":999,"REV_AT_EPOCH":68609,"BSTAR":0.0017017,"MEAN_MOTION_DOT":0.00012865,"MEAN_MOTION_DDOT":0}]
